NORAD_CAT_ID,OBJECT_NAME,OBJECT_TYPE,EPOCH,MEAN_MOTION,ECCENTRICITY,INCLINATION,RA_OF_ASC_NODE,ARG_OF_PERICENTER,MEAN_ANOMALY,BSTAR,MEAN_MOTION_DOT,MEAN_MOTION_DDOT,TLE_LINE0,TLE_LINE1,TLE_LINE2,SEMIMAJOR_AXIS,PERIOD,APOGEE,PERIGEE,DECAYED
51131.0,STARLINK-3388,PAYLOAD,2024-02-18 18:26:40,15.08843966,0.0001632,53.2159,65.6481,88.448,271.6699,0.00042748,6.523e-05,0.0,0 STARLINK-3388,1 51131U 22005AD  24049.76851914  .00006523  00000-0  42748-3 0  9994,2 51131  53.2159  65.6481 0001632  88.4480 271.6699 15.08843966115515,6917.868,95.437,540.862,538.604,0.0
51131.0,STARLINK-3388,PAYLOAD,2024-02-19 00:48:12,15.08843789,0.000168,53.2157,64.4591,88.7676,271.3509,0.00034449,5.199e-05,0.0,0 STARLINK-3388,1 51131U 22005AD  24050.03347944  .00005199  00000-0  34449-3 0  9996,2 51131  53.2157  64.4591 0001680  88.7676 271.3509 15.08843789116673,6917.869,95.437,540.896,538.572,0.0
51131.0,STARLINK-3388,PAYLOAD,2024-02-19 07:09:45,15.08847263,0.0001564,53.2165,63.2689,94.4774,265.6397,0.00043297,6.611e-05,0.0,0 STARLINK-3388,1 51131U 22005AD  24050.29843801  .00006611  00000-0  43297-3 0  9998,2 51131  53.2165  63.2689 0001564  94.4774 265.6397 15.08847263115593,6917.858,95.437,540.805,538.641,0.0
51131.0,STARLINK-3388,PAYLOAD,2024-02-19 18:17:27,15.08840925,0.0001607,53.2147,61.1862,88.6838,271.4338,0.00012414,1.688e-05,0.0,0 STARLINK-3388,1 51131U 22005AD  24050.76211913  .00001688  00000-0  12414-3 0  9999,2 51131  53.2147  61.1862 0001607  88.6838 271.4338 15.08840925116787,6917.878,95.437,540.854,538.631,0.0
51131.0,STARLINK-3388,PAYLOAD,2024-02-20 07:00:32,15.08835572,0.0001663,53.2166,58.8088,88.4743,271.6439,5.8753e-05,6.47e-06,0.0,0 STARLINK-3388,1 51131U 22005AD  24051.29204441  .00000647  00000-0  58753-4 0  9997,2 51131  53.2166  58.8088 0001663  88.4743 271.6439 15.08835572116861,6917.894,95.438,540.909,538.608,0.0
51131.0,STARLINK-3388,PAYLOAD,2024-02-21 03:40:33,15.08846742,0.00018,53.2176,54.9431,87.2279,272.8919,0.00019998,2.897e-05,0.0,0 STARLINK-3388,1 51131U 22005AD  24052.15316116  .00002897  00000-0  19998-3 0  9992,2 51131  53.2176  54.9431 0001800  87.2279 272.8919 15.08846742116996,6917.86,95.437,540.97,538.48,0.0
51131.0,STARLINK-3388,PAYLOAD,2024-02-21 06:51:19,15.08849,0.0001572,53.2174,54.3477,89.0996,271.0177,0.00033454,5.042e-05,0.0,0 STARLINK-3388,1 51131U 22005AD  24052.28564033  .00005042  00000-0  33454-3 0  9997,2 51131  53.2174  54.3477 0001572  89.0996 271.0177 15.08849000115895,6917.853,95.437,540.805,538.63,0.0
51131.0,STARLINK-3388,PAYLOAD,2024-02-22 03:31:20,15.08841628,0.0001535,53.2172,50.482,98.4978,261.6188,0.0001414,1.963e-05,0.0,0 STARLINK-3388,1 51131U 22005AD  24053.14676282  .00001963  00000-0  14140-3 0  9992,2 51131  53.2172  50.4820 0001535  98.4978 261.6188 15.08841628117140,6917.875,95.437,540.802,538.679,0.0
51131.0,STARLINK-3388,PAYLOAD,2024-02-22 06:42:06,15.08844791,0.000163,53.2173,49.8868,86.311,273.8068,0.00020739,3.015e-05,0.0,0 STARLINK-3388,1 51131U 22005AD  24053.27924271  .00003015  00000-0  20739-3 0  9991,2 51131  53.2173  49.8868 0001630  86.3110 273.8068 15.08844791116049,6917.866,95.437,540.858,538.603,0.0
51131.0,STARLINK-3388,PAYLOAD,2024-02-22 16:14:25,15.08844073,0.0001599,53.2171,48.1033,85.9571,274.1603,0.00014597,2.036e-05,0.0,0 STARLINK-3388,1 51131U 22005AD  24053.67668262  .00002036  00000-0  14597-3 0  9997,2 51131  53.2171  48.1033 0001599  85.9571 274.1603 15.08844073116102,6917.868,95.437,540.839,538.627,0.0
51131.0,STARLINK-3388,PAYLOAD,2024-02-23 06:32:53,15.08842921,0.0001648,53.2183,45.4294,100.5138,259.604,6.9223e-05,8.14e-06,0.0,0 STARLINK-3388,1 51131U 22005AD  24054.27284185  .00000814  00000-0  69223-4 0  9991,2 51131  53.2183  45.4294 0001648 100.5138 259.6040 15.08842921117319,6917.871,95.437,540.877,538.596,0.0
51131.0,STARLINK-3388,PAYLOAD,2024-02-23 16:05:12,15.08841613,0.0001622,53.2179,43.6458,102.3278,257.7896,1.4961e-05,-5e-07,0.0,0 STARLINK-3388,1 51131U 22005AD  24054.67028328 -.00000050  00000-0  14961-4 0  9992,2 51131  53.2179  43.6458 0001622 102.3278 257.7896 15.08841613116250,6917.875,95.437,540.863,538.618,0.0
51131.0,STARLINK-3388,PAYLOAD,2024-02-24 07:59:03,15.08844456,0.0001682,53.218,40.6725,105.8327,254.2851,0.00015222,2.136e-05,0.0,0 STARLINK-3388,1 51131U 22005AD  24055.33268291  .00002136  00000-0  15222-3 0  9997,2 51131  53.2180  40.6725 0001682 105.8327 254.2851 15.08844456117471,6917.867,95.437,540.895,538.568,0.0
51131.0,STARLINK-3388,PAYLOAD,2024-02-24 22:17:32,15.08840729,0.0001696,53.2176,37.996,96.2875,263.831,0.00010804,1.432e-05,0.0,0 STARLINK-3388,1 51131U 22005AD  24055.92884591  .00001432  00000-0  10804-3 0  9998,2 51131  53.2176  37.9960 0001696  96.2875 263.8310 15.08840729116443,6917.878,95.438,540.916,538.57,0.0
51131.0,STARLINK-3388,PAYLOAD,2024-02-25 04:39:04,15.08840976,0.00018,53.2181,36.806,101.9884,258.131,5.6234e-05,6.07e-06,0.0,0 STARLINK-3388,1 51131U 22005AD  24056.19380605  .00000607  00000-0  56234-4 0  9996,2 51131  53.2181  36.8060 0001800 101.9884 258.1310 15.08840976117609,6917.877,95.437,540.988,538.497,0.0
51131.0,STARLINK-3388,PAYLOAD,2024-02-25 06:14:27,15.08841122,0.0001572,53.2174,36.5085,95.5277,264.5895,7.6046e-05,9.23e-06,0.0,0 STARLINK-3388,1 51131U 22005AD  24056.26004569  .00000923  00000-0  76046-4 0  9990,2 51131  53.2174  36.5085 0001572  95.5277 264.5895 15.08841122116494,6917.877,95.437,540.829,538.654,0.0
51131.0,STARLINK-3388,PAYLOAD,2024-02-25 15:46:46,15.08839894,0.000155,53.2173,34.7243,85.1306,274.9863,0.0001017,1.331e-05,0.0,0 STARLINK-3388,1 51131U 22005AD  24056.65748767  .00001331  00000-0  10170-3 0  9997,2 51131  53.2173  34.7243 0001550  85.1306 274.9863 15.08839894116553,6917.881,95.438,540.818,538.673,0.0
51131.0,STARLINK-3388,PAYLOAD,2024-02-26 06:05:15,15.08842551,0.0001549,53.2188,32.0456,82.5009,277.616,7.2431e-05,8.65e-06,0.0,0 STARLINK-3388,1 51131U 22005AD  24057.25364874  .00000865  00000-0  72431-4 0  9997,2 51131  53.2188  32.0456 0001549  82.5009 277.6160 15.08842551117763,6917.873,95.437,540.809,538.666,0.0
51131.0,STARLINK-3388,PAYLOAD,2024-02-26 21:59:06,15.08841526,0.0001539,53.2181,29.0747,87.4938,272.623,0.00010783,1.429e-05,0.0,0 STARLINK-3388,1 51131U 22005AD  24057.91604842  .00001429  00000-0  10783-3 0  9990,2 51131  53.2181  29.0747 0001539  87.4938 272.6230 15.08841526116740,6917.876,95.437,540.805,538.676,0.0
51131.0,STARLINK-3388,PAYLOAD,2024-02-27 07:31:24,15.08852228,0.0001457,53.2179,27.2875,102.1626,257.953,0.00011831,1.596e-05,0.0,0 STARLINK-3388,1 51131U 22005AD  24058.31347981  .00001596  00000-0  11831-3 0  9993,2 51131  53.2179  27.2875 0001457 102.1626 257.9530 15.08852228117928,6917.843,95.437,540.716,538.7,0.0
51131.0,STARLINK-3388,PAYLOAD,2024-02-27 15:28:21,15.0884334,0.0001694,53.2179,25.8023,78.5356,281.5826,0.00012045,1.63e-05,0.0,0 STARLINK-3388,1 51131U 22005AD  24058.64468893  .00001630  00000-0  12045-3 0  9992,2 51131  53.2179  25.8023 0001694  78.5356 281.5826 15.08843340117977,6917.87,95.437,540.907,538.563,0.0
51131.0,STARLINK-3388,PAYLOAD,2024-02-27 21:49:53,15.08837687,0.0001519,53.217,24.6106,89.986,270.1307,8.8141e-05,1.115e-05,0.0,0 STARLINK-3388,1 51131U 22005AD  24058.90965069  .00001115  00000-0  88141-4 0  9997,2 51131  53.2170  24.6106 0001519  89.9860 270.1307 15.08837687116894,6917.887,95.438,540.803,538.702,0.0
51131.0,STARLINK-3388,PAYLOAD,2024-02-28 04:11:26,15.08843634,0.0001356,53.2168,23.422,91.424,268.6908,0.00018555,2.667e-05,0.0,0 STARLINK-3388,1 51131U 22005AD  24059.17460746  .00002667  00000-0  18555-3 0  9993,2 51131  53.2168  23.4220 0001356  91.4240 268.6908 15.08843634116937,6917.869,95.437,540.672,538.796,0.0
51131.0,STARLINK-3388,PAYLOAD,2024-02-28 21:40:40,15.08838558,0.0001447,53.2171,20.1508,99.0028,261.1128,1.3423e-05,-7.4e-07,0.0,0 STARLINK-3388,1 51131U 22005AD  24059.90325009 -.00000074  00000-0  13423-4 0  9997,2 51131  53.2171  20.1508 0001447  99.0028 261.1128 15.08838558117047,6917.885,95.438,540.751,538.749,0.0
51131.0,STARLINK-3388,PAYLOAD,2024-02-29 04:02:13,15.08845315,0.0001373,53.2175,18.9581,105.2073,254.9071,3.9981e-05,3.49e-06,0.0,0 STARLINK-3388,1 51131U 22005AD  24060.16820651  .00000349  00000-0  39981-4 0  9991,2 51131  53.2175  18.9581 0001373 105.2073 254.9071 15.08845315118200,6917.864,95.437,540.679,538.779,0.0
51131.0,STARLINK-3388,PAYLOAD,2024-02-29 13:34:31,15.08843839,0.0001392,53.2182,17.1757,96.8505,263.2646,1.2157e-05,-9.4e-07,0.0,0 STARLINK-3388,1 51131U 22005AD  24060.56564807 -.00000094  00000-0  12157-4 0  9997,2 51131  53.2182  17.1757 0001392  96.8505 263.2646 15.08843839117142,6917.869,95.437,540.697,538.771,0.0
51131.0,STARLINK-3388,PAYLOAD,2024-02-29 21:31:28,15.08836101,0.0001461,53.2183,15.6921,100.3826,259.7331,5.2062e-05,5.41e-06,0.0,0 STARLINK-3388,1 51131U 22005AD  24060.89685397  .00000541  00000-0  52062-4 0  9996,2 51131  53.2183  15.6921 0001461 100.3826 259.7331 15.08836101117193,6917.892,95.438,540.768,538.747,0.0
51131.0,STARLINK-3388,PAYLOAD,2024-03-01 03:53:00,15.08838197,0.0001432,53.2185,14.5034,101.6098,258.5055,6.2282e-05,7.03e-06,0.0,0 STARLINK-3388,1 51131U 22005AD  24061.16181277  .00000703  00000-0  62282-4 0  9990,2 51131  53.2185  14.5034 0001432 101.6098 258.5055 15.08838197118357,6917.886,95.438,540.742,538.76,0.0
51131.0,STARLINK-3388,PAYLOAD,2024-03-01 13:25:19,15.08844515,0.0001392,53.2189,12.7199,101.0773,259.0375,5.5961e-05,6.03e-06,0.0,0 STARLINK-3388,1 51131U 22005AD  24061.55924901  .00000603  00000-0  55961-4 0  9997,2 51131  53.2189  12.7199 0001392 101.0773 259.0375 15.08844515117296,6917.867,95.437,540.695,538.769,0.0
51131.0,STARLINK-3388,PAYLOAD,2024-03-02 02:08:24,15.0884407,0.0001483,53.2189,10.3411,107.4582,252.6572,0.0001232,1.674e-05,0.0,0 STARLINK-3388,1 51131U 22005AD  24062.08916812  .00001674  00000-0  12320-3 0  9998,2 51131  53.2189  10.3411 0001483 107.4582 252.6572 15.08844070117379,6917.868,95.437,540.759,538.707,0.0
